[{"OBJECT_NAME":"STARLINK-2343","OBJECT_ID":"2021-021AA","EPOCH":"2026-03-10T00:00:02.999808","MEAN_MOTION":15.26280353,"ECCENTRICITY":0.0001319,"INCLINATION":53.1422,"RA_OF_ASC_NODE":279.4171,"ARG_OF_PERICENTER":82.2814,"MEAN_ANOMALY":282.8013,"EPHEMERIS_TYPE":0,"CLASSIFICATION_TYPE":"U","NORAD_CAT_ID":47884,"ELEMENT_SET_NO":999,"REV_AT_EPOCH":579,"BSTAR":0.057497756,"MEAN_MOTION_DOT":0.01671594,"MEAN_MOTION_DDOT":0},{"OBJECT_NAME":"COSMOS 2251 DEB","OBJECT_ID":"1993-036BXP","EPOCH":"2026-03-04T07:23:49.847712","MEAN_MOTION":15.24789556,"ECCENTRICITY":0.00190834,"INCLINATION":73.9759,"RA_OF_ASC_NODE":64.3004,"ARG_OF_PERICENTER":239.4537,"MEAN_ANOMALY":120.4779,"EPHEMERIS_TYPE":0,"CLASSIFICATION_TYPE":"U","NORAD_CAT_ID":47059,"ELEMENT_SET_NO":999,"REV_AT_EPOCH":9543,"BSTAR":0.0048704033,"MEAN_MOTION_DOT":0.00123422,"MEAN_MOTION_DDOT":0}]
